ORBCOMM FM103           
1 40091U 14040F   24332.49369200  .00002646  00000+0  61347-3 0  9991
2 40091  47.0046 249.8813 0001530  68.5999 291.5050 14.57485303534674
ORBCOMM FM119           
1 41180U 15081B   24332.56854950  .00002648  00000+0  61412-3 0  9991
2 41180  47.0004  67.9368 0002079 236.9833 123.0853 14.57460224476309
ORBCOMM FM105           
1 41181U 15081C   24332.60605766  .00001359  00000+0  43199-3 0  9996
2 41181  47.0025  53.3378 0001379 172.0406 188.0496 14.44863292471599
ORBCOMM FM118           
1 41183U 15081E   24332.54640023  .00002166  00000+0  50913-3 0  9995
2 41183  47.0024 158.5559 0002393 273.2635  86.7976 14.57466763475029
ORBCOMM FM112           
1 41184U 15081F   24332.54572578  .00003352  00000+0  76757-3 0  9997
2 41184  46.9987  67.2314 0001925 222.5048 137.5689 14.57458507476244
ORBCOMM FM113           
1 41185U 15081G   24332.52325733  .00003346  00000+0  76606-3 0  9991
2 41185  47.0006  67.6392 0002149 237.4832 122.5845 14.57470333476221
